OBJECT_NAME,OBJECT_ID,EPOCH,MEAN_MOTION,ECCENTRICITY,INCLINATION,RA_OF_ASC_NODE,ARG_OF_PERICENTER,MEAN_ANOMALY,EPHEMERIS_TYPE,CLASSIFICATION_TYPE,NORAD_CAT_ID,ELEMENT_SET_NO,REV_AT_EPOCH,BSTAR,MEAN_MOTION_DOT,MEAN_MOTION_DDOT
KUZGTU 1 (RS47S),2023-091AV,2026-06-11T05:06:08.452512,15.29722519,.00123567,97.5071,226.6321,116.4219,243.8290,0,U,57217,999,16346,.33913301E-3,.9711E-4,0
SONATE-2,2024-043Q,2026-06-10T21:50:45.612096,15.58250405,.00067607,97.5521,311.9242,216.8986,143.1805,0,U,59112,999,12691,.47423841E-3,.35885E-3,0
MESAT1,2024-125G,2026-06-11T03:38:33.440352,15.62549889,.00089534,97.2311,19.4999,226.9648,133.0861,0,U,60209,999,10862,.51392823E-3,.45929E-3,0
OOV-CUBE (TUBSAT-30),2024-128F,2026-06-10T14:25:38.273088,15.02746418,.00454437,61.9950,248.5377,132.2861,228.2097,0,U,60240,999,10512,.16003491E-3,.1981E-4,0
COLIBRI-S (RS67S),2024-199M,2026-06-11T05:49:18.534432,15.47477196,.00063433,97.3009,36.0440,307.5533,52.5140,0,U,61746,999,13649,.35570463E-3,.18194E-3,0
HORS 3 (RS81S),2024-199U,2026-06-11T05:35:04.577568,15.54559779,.00039496,97.2993,37.9569,314.9075,45.1858,0,U,61753,999,13663,.45346545E-3,.29892E-3,0
HORS 4 (RS82S),2024-199V,2026-06-11T06:36:14.210208,15.59133131,.00030226,97.2941,39.1640,299.3360,60.7595,0,U,61754,999,13672,.54992213E-3,.43041E-3,0
ARCTICSAT 1 (RS74S),2024-199AD,2026-06-11T06:21:55.616256,16.16188794,.00091987,97.2841,46.1431,211.3875,148.6864,0,U,61762,999,13717,.1227934E-2,.1667922E-1,.25232582E-2
SIT-2086,2024-199AF,2026-06-11T06:26:08.104704,15.52677645,.00043506,97.2949,38.4901,284.2624,75.8146,0,U,61764,999,13351,.52034605E-3,.32067E-3,0
HYPERVIEW 1G (RS66S),2024-199AP,2026-06-11T06:45:01.793664,15.74295435,.00025546,97.2896,41.7086,254.6134,105.4849,0,U,61772,999,13374,.76907209E-3,.111715E-2,0
ALTAIR (RS65S),2024-199AW,2026-06-11T06:03:39.536352,15.36913422,.00116759,97.3045,31.6432,335.0333,25.0346,0,U,61779,999,13620,.2690303E-3,.9651E-4,0
ASRTU-1 (AO-123),2024-199AY,2026-06-11T05:38:47.336640,15.35589258,.00129034,97.3016,30.9602,337.4887,22.5789,0,U,61781,999,13301,.18840606E-3,.6454E-4,0
SAMSAT-IONOSPHERE (RS75S),2024-199BB,2026-06-11T06:38:22.495200,15.57107506,.00060691,97.2963,38.0272,307.7633,52.3072,0,U,61784,999,13664,.53657882E-3,.38929E-3,0
RTU MIREA 1 (RS51S),2024-199BC,2026-06-11T05:59:44.371104,15.60439068,.00055627,97.2952,38.8014,300.8964,59.1745,0,U,61785,999,13354,.58382112E-3,.48074E-3,0
TEVEL2-4,2025-052D,2026-06-11T04:23:24.796896,15.34397986,.00046998,97.3916,58.5659,114.3674,245.8060,0,U,63213,999,6919,.46925064E-3,.15571E-3,0
TEVEL2-5,2025-052E,2026-06-11T04:51:58.157280,15.34228834,.00045874,97.3918,58.5347,115.8505,244.3212,0,U,63214,999,6919,.46795208E-3,.15444E-3,0
TEVEL2-6,2025-052F,2026-06-11T05:09:31.549536,15.34192620,.00045066,97.3920,58.5314,115.9282,244.2426,0,U,63215,999,6919,.47617787E-3,.15699E-3,0
TEVEL2-1,2025-052H,2026-06-10T23:32:32.592192,15.33660807,.00044149,97.3892,57.9289,125.2474,234.9182,0,U,63217,999,6914,.51262912E-3,.16627E-3,0
TEVEL2-3,2025-052J,2026-06-10T23:25:08.849568,15.33713763,.00044286,97.3892,57.9448,126.0042,234.1612,0,U,63218,999,6914,.50515806E-3,.1641E-3,0
TEVEL2-2,2025-052K,2026-06-10T15:43:16.571424,15.33656754,.00043829,97.3891,57.6053,127.1884,232.9759,0,U,63219,999,6909,.48109581E-3,.15595E-3,0
TEVEL2-9,2025-052AD,2026-06-11T05:05:19.688352,15.31712715,.00073029,97.3952,57.5501,147.3621,212.8073,0,U,63237,999,6911,.43675358E-3,.13315E-3,0
TEVEL2-7,2025-052AE,2026-06-10T23:46:13.904544,15.31416691,.00073222,97.3955,57.2476,148.6596,211.5083,0,U,63238,999,6907,.49054807E-3,.1483E-3,0
TEVEL2-8,2025-052AF,2026-06-11T03:06:12.373632,15.31404962,.00073257,97.3951,57.3633,149.0295,211.1379,0,U,63239,999,6909,.48598528E-3,.14686E-3,0
INNOSAT 16 (RS92S7),2025-155C,2026-06-11T05:30:24.861888,15.25392389,.00098225,97.4556,129.3764,196.7559,163.3356,0,U,64878,999,7976,.17911744E-3,.4454E-4,0
GEOSCAN 6 (RS92S6),2025-155D,2026-06-11T05:31:47.128512,15.30039029,.00075429,97.4547,130.7595,182.3298,177.7909,0,U,64879,999,7985,.28186749E-3,.8125E-4,0
GEOSCAN 1 (RS92S1),2025-155E,2026-06-11T05:38:37.337568,15.30624600,.00074941,97.4544,130.9071,182.0287,178.0925,0,U,64880,999,7986,.29474397E-3,.8656E-4,0
239ALFEROV (RS61S),2025-155F,2026-06-11T05:07:03.278496,15.32778174,.00071839,97.4544,131.4265,178.5159,181.6105,0,U,64881,999,7989,.36507046E-3,.11491E-3,0
GEOSCAN 2 (RS92S2),2025-155Q,2026-06-11T05:31:02.674848,15.30896188,.00073402,97.4543,131.0519,167.9528,192.1890,0,U,64890,999,7987,.2895457E-3,.8574E-4,0
GEOSCAN 5 (RS92S5),2025-155R,2026-06-11T06:27:01.331424,15.33099025,.00058833,97.4536,131.6177,181.4834,178.6391,0,U,64891,999,7991,.37716283E-3,.11992E-3,0
GEOSCAN 4 (RS92S4),2025-155S,2026-06-11T06:05:06.342432,15.33248791,.00059244,97.4540,131.6491,181.7924,178.3298,0,U,64892,999,7991,.36903051E-3,.11787E-3,0
