KUZGTU 1 (RS47S)        
1 57217U 23091AV  26162.21259783  .00009711  00000+0  33913-3 0  9990
2 57217  97.5071 226.6321 0012356 116.4219 243.8290 15.29722519163467
SONATE-2                
1 59112U 24043Q   26161.91025014  .00035885  00000+0  47424-3 0  9991
2 59112  97.5521 311.9242 0006760 216.8986 143.1805 15.58250405126916
MESAT1                  
1 60209U 24125G   26162.15177593  .00045929  00000+0  51393-3 0  9998
2 60209  97.2311  19.4999 0008953 226.9648 133.0861 15.62549889108621
OOV-CUBE (TUBSAT-30)    
1 60240U 24128F   26161.60113742  .00001981  00000+0  16003-3 0  9990
2 60240  61.9950 248.5377 0045443 132.2861 228.2097 15.02746418105120
COLIBRI-S (RS67S)       
1 61746U 24199M   26162.24257563  .00018194  00000+0  35570-3 0  9995
2 61746  97.3009  36.0440 0006343 307.5533  52.5140 15.47477196136494
HORS 3 (RS81S)          
1 61753U 24199U   26162.23269187  .00029892  00000+0  45347-3 0  9997
2 61753  97.2993  37.9569 0003949 314.9075  45.1858 15.54559779136633
HORS 4 (RS82S)          
1 61754U 24199V   26162.27516447  .00043041  00000+0  54992-3 0  9994
2 61754  97.2941  39.1640 0003022 299.3360  60.7595 15.59133131136722
ARCTICSAT 1 (RS74S)     
1 61762U 24199AD  26162.26522704  .01667922  25233-2  12279-2 0  9995
2 61762  97.2841  46.1431 0009198 211.3875 148.6864 16.16188794137175
SIT-2086                
1 61764U 24199AF  26162.26814936  .00032067  00000+0  52035-3 0  9990
2 61764  97.2949  38.4901 0004350 284.2624  75.8146 15.52677645133513
HYPERVIEW 1G (RS66S)    
1 61772U 24199AP  26162.28127076  .00111715  00000+0  76907-3 0  9995
2 61772  97.2896  41.7086 0002554 254.6134 105.4849 15.74295435133747
ALTAIR (RS65S)          
1 61779U 24199AW  26162.25254093  .00009651  00000+0  26903-3 0  9995
2 61779  97.3045  31.6432 0011675 335.0333  25.0346 15.36913422136207
ASRTU-1 (AO-123)        
1 61781U 24199AY  26162.23527010  .00006454  00000+0  18841-3 0  9998
2 61781  97.3016  30.9602 0012903 337.4887  22.5789 15.35589258133018
SAMSAT-IONOSPHERE (RS7*)
1 61784U 24199BB  26162.27664925  .00038929  00000+0  53658-3 0  9999
2 61784  97.2963  38.0272 0006069 307.7633  52.3072 15.57107506136642
RTU MIREA 1 (RS51S)     
1 61785U 24199BC  26162.24981911  .00048074  00000+0  58382-3 0  9995
2 61785  97.2952  38.8014 0005562 300.8964  59.1745 15.60439068133544
TEVEL2-4                
1 63213U 25052D   26162.18292589  .00015571  00000+0  46925-3 0  9997
2 63213  97.3916  58.5659 0004699 114.3674 245.8060 15.34397986 69199
TEVEL2-5                
1 63214U 25052E   26162.20275645  .00015444  00000+0  46795-3 0  9999
2 63214  97.3918  58.5347 0004587 115.8505 244.3212 15.34228834 69199
TEVEL2-6                
1 63215U 25052F   26162.21494849  .00015699  00000+0  47618-3 0  9997
2 63215  97.3920  58.5314 0004506 115.9282 244.2426 15.34192620 69190
TEVEL2-1                
1 63217U 25052H   26161.98093278  .00016627  00000+0  51263-3 0  9996
2 63217  97.3892  57.9289 0004414 125.2474 234.9182 15.33660807 69145
TEVEL2-3                
1 63218U 25052J   26161.97579687  .00016410  00000+0  50516-3 0  9999
2 63218  97.3892  57.9448 0004428 126.0042 234.1612 15.33713763 69148
TEVEL2-2                
1 63219U 25052K   26161.65505291  .00015595  00000+0  48110-3 0  9995
2 63219  97.3891  57.6053 0004382 127.1884 232.9759 15.33656754 69090
TEVEL2-9                
1 63237U 25052AD  26162.21203343  .00013315  00000+0  43675-3 0  9990
2 63237  97.3952  57.5501 0007302 147.3621 212.8073 15.31712715 69110
TEVEL2-7                
1 63238U 25052AE  26161.99043871  .00014830  00000+0  49055-3 0  9994
2 63238  97.3955  57.2476 0007322 148.6596 211.5083 15.31416691 69075
TEVEL2-8                
1 63239U 25052AF  26162.12930988  .00014686  00000+0  48599-3 0  9996
2 63239  97.3951  57.3633 0007325 149.0295 211.1379 15.31404962 69096
INNOSAT 16 (RS92S7)     
1 64878U 25155C   26162.22945442  .00004454  00000+0  17912-3 0  9999
2 64878  97.4556 129.3764 0009822 196.7559 163.3356 15.25392389 79769
GEOSCAN 6 (RS92S6)      
1 64879U 25155D   26162.23040658  .00008125  00000+0  28187-3 0  9991
2 64879  97.4547 130.7595 0007542 182.3298 177.7909 15.30039029 79854
GEOSCAN 1 (RS92S1)      
1 64880U 25155E   26162.23515437  .00008656  00000+0  29474-3 0  9994
2 64880  97.4544 130.9071 0007494 182.0287 178.0925 15.30624600 79863
239ALFEROV (RS61S)      
1 64881U 25155F   26162.21323239  .00011491  00000+0  36507-3 0  9996
2 64881  97.4544 131.4265 0007183 178.5159 181.6105 15.32778174 79899
GEOSCAN 2 (RS92S2)      
1 64890U 25155Q   26162.22989207  .00008574  00000+0  28955-3 0  9996
2 64890  97.4543 131.0519 0007340 167.9528 192.1890 15.30896188 79873
GEOSCAN 5 (RS92S5)      
1 64891U 25155R   26162.26876541  .00011992  00000+0  37716-3 0  9990
2 64891  97.4536 131.6177 0005883 181.4834 178.6391 15.33099025 79911
GEOSCAN 4 (RS92S4)      
1 64892U 25155S   26162.25354563  .00011787  00000+0  36903-3 0  9994
2 64892  97.4540 131.6491 0005924 181.7924 178.3298 15.33248791 79914
